CCSDS_OMM_VERS = 2.0
CREATION_DATE  = 
ORIGINATOR     = 

OBJECT_NAME    = STARLINK-36525
OBJECT_ID      = 2026-008F
CENTER_NAME    = EARTH
REF_FRAME      = TEME
TIME_SYSTEM    = UTC
MEAN_ELEMENT_THEORY = SGP/SGP4

EPOCH          = 2026-01-22T22:00:01.999584
MEAN_MOTION    = 15.97013476
ECCENTRICITY   = .00016787
INCLINATION    = 43.0019
RA_OF_ASC_NODE = 112.1195
ARG_OF_PERICENTER = 281.1784
MEAN_ANOMALY   = 175.0735

EPHEMERIS_TYPE = 0
CLASSIFICATION_TYPE = U
NORAD_CAT_ID   = 67450
ELEMENT_SET_NO = 999
REV_AT_EPOCH   = 243
BSTAR          = -.25585947E-2
MEAN_MOTION_DOT = -.1151423E-1
MEAN_MOTION_DDOT = .41104954E-3

CCSDS_OMM_VERS = 2.0
CREATION_DATE  = 
ORIGINATOR     = 

OBJECT_NAME    = STARLINK-36511
OBJECT_ID      = 2026-008G
CENTER_NAME    = EARTH
REF_FRAME      = TEME
TIME_SYSTEM    = UTC
MEAN_ELEMENT_THEORY = SGP/SGP4

EPOCH          = 2026-01-22T22:00:01.999584
MEAN_MOTION    = 15.97127822
ECCENTRICITY   = .00015532
INCLINATION    = 43.0019
RA_OF_ASC_NODE = 112.1132
ARG_OF_PERICENTER = 283.7813
MEAN_ANOMALY   = 175.0096

EPHEMERIS_TYPE = 0
CLASSIFICATION_TYPE = U
NORAD_CAT_ID   = 67451
ELEMENT_SET_NO = 999
REV_AT_EPOCH   = 243
BSTAR          = -.25543815E-2
MEAN_MOTION_DOT = -.1156741E-1
MEAN_MOTION_DDOT = .415013E-3

CCSDS_OMM_VERS = 2.0
CREATION_DATE  = 
ORIGINATOR     = 

OBJECT_NAME    = STARLINK-36524
OBJECT_ID      = 2026-008H
CENTER_NAME    = EARTH
REF_FRAME      = TEME
TIME_SYSTEM    = UTC
MEAN_ELEMENT_THEORY = SGP/SGP4

EPOCH          = 2026-01-22T22:00:01.999584
MEAN_MOTION    = 15.97227197
ECCENTRICITY   = .00015494
INCLINATION    = 43.0020
RA_OF_ASC_NODE = 112.1075
ARG_OF_PERICENTER = 283.0961
MEAN_ANOMALY   = 177.8197

EPHEMERIS_TYPE = 0
CLASSIFICATION_TYPE = U
NORAD_CAT_ID   = 67452
ELEMENT_SET_NO = 999
REV_AT_EPOCH   = 243
BSTAR          = -.25681437E-2
MEAN_MOTION_DOT = -.1169258E-1
MEAN_MOTION_DDOT = .42368941E-3

CCSDS_OMM_VERS = 2.0
CREATION_DATE  = 
ORIGINATOR     = 

OBJECT_NAME    = STARLINK-36518
OBJECT_ID      = 2026-008J
CENTER_NAME    = EARTH
REF_FRAME      = TEME
TIME_SYSTEM    = UTC
MEAN_ELEMENT_THEORY = SGP/SGP4

EPOCH          = 2026-01-22T22:00:01.999584
MEAN_MOTION    = 16.01359704
ECCENTRICITY   = .0001434
INCLINATION    = 43.0009
RA_OF_ASC_NODE = 111.8728
ARG_OF_PERICENTER = 281.9849
MEAN_ANOMALY   = 270.8123

EPHEMERIS_TYPE = 0
CLASSIFICATION_TYPE = U
NORAD_CAT_ID   = 67453
ELEMENT_SET_NO = 999
REV_AT_EPOCH   = 245
BSTAR          = -.23893589E-2
MEAN_MOTION_DOT = -.1373597E-1
MEAN_MOTION_DDOT = .59449362E-3

CCSDS_OMM_VERS = 2.0
CREATION_DATE  = 
ORIGINATOR     = 

OBJECT_NAME    = STARLINK-36517
OBJECT_ID      = 2026-008K
CENTER_NAME    = EARTH
REF_FRAME      = TEME
TIME_SYSTEM    = UTC
MEAN_ELEMENT_THEORY = SGP/SGP4

EPOCH          = 2026-01-22T22:00:01.999584
MEAN_MOTION    = 15.97357402
ECCENTRICITY   = .00016222
INCLINATION    = 43.0019
RA_OF_ASC_NODE = 112.1007
ARG_OF_PERICENTER = 279.6565
MEAN_ANOMALY   = 183.8532

EPHEMERIS_TYPE = 0
CLASSIFICATION_TYPE = U
NORAD_CAT_ID   = 67454
ELEMENT_SET_NO = 999
REV_AT_EPOCH   = 245
BSTAR          = -.25937843E-2
MEAN_MOTION_DOT = -.118929E-1
MEAN_MOTION_DDOT = .43763695E-3

CCSDS_OMM_VERS = 2.0
CREATION_DATE  = 
ORIGINATOR     = 

OBJECT_NAME    = STARLINK-36516
OBJECT_ID      = 2026-008L
CENTER_NAME    = EARTH
REF_FRAME      = TEME
TIME_SYSTEM    = UTC
MEAN_ELEMENT_THEORY = SGP/SGP4

EPOCH          = 2026-01-22T22:00:01.999584
MEAN_MOTION    = 15.97587758
ECCENTRICITY   = .00014051
INCLINATION    = 43.0022
RA_OF_ASC_NODE = 112.0881
ARG_OF_PERICENTER = 279.9897
MEAN_ANOMALY   = 188.7333

EPHEMERIS_TYPE = 0
CLASSIFICATION_TYPE = U
NORAD_CAT_ID   = 67455
ELEMENT_SET_NO = 999
REV_AT_EPOCH   = 243
BSTAR          = -.25797508E-2
MEAN_MOTION_DOT = -.1197964E-1
MEAN_MOTION_DDOT = .44454864E-3

CCSDS_OMM_VERS = 2.0
CREATION_DATE  = 
ORIGINATOR     = 

OBJECT_NAME    = STARLINK-36493
OBJECT_ID      = 2026-008M
CENTER_NAME    = EARTH
REF_FRAME      = TEME
TIME_SYSTEM    = UTC
MEAN_ELEMENT_THEORY = SGP/SGP4

EPOCH          = 2026-01-22T22:00:01.999584
MEAN_MOTION    = 15.97411959
ECCENTRICITY   = .00016856
INCLINATION    = 43.0022
RA_OF_ASC_NODE = 112.0977
ARG_OF_PERICENTER = 278.2572
MEAN_ANOMALY   = 186.5853

EPHEMERIS_TYPE = 0
CLASSIFICATION_TYPE = U
NORAD_CAT_ID   = 67456
ELEMENT_SET_NO = 999
REV_AT_EPOCH   = 243
BSTAR          = -.25888745E-2
MEAN_MOTION_DOT = -.119064E-1
MEAN_MOTION_DDOT = .43879338E-3

CCSDS_OMM_VERS = 2.0
CREATION_DATE  = 
ORIGINATOR     = 

OBJECT_NAME    = STARLINK-36529
OBJECT_ID      = 2026-008N
CENTER_NAME    = EARTH
REF_FRAME      = TEME
TIME_SYSTEM    = UTC
MEAN_ELEMENT_THEORY = SGP/SGP4

EPOCH          = 2026-01-22T22:00:01.999584
MEAN_MOTION    = 15.97496410
ECCENTRICITY   = .00016244
INCLINATION    = 43.0022
RA_OF_ASC_NODE = 112.0924
ARG_OF_PERICENTER = 279.2558
MEAN_ANOMALY   = 187.5922

EPHEMERIS_TYPE = 0
CLASSIFICATION_TYPE = U
NORAD_CAT_ID   = 67457
ELEMENT_SET_NO = 999
REV_AT_EPOCH   = 243
BSTAR          = -.25709875E-2
MEAN_MOTION_DOT = -.1187993E-1
MEAN_MOTION_DDOT = .43739487E-3

CCSDS_OMM_VERS = 2.0
CREATION_DATE  = 
ORIGINATOR     = 

OBJECT_NAME    = STARLINK-36528
OBJECT_ID      = 2026-008P
CENTER_NAME    = EARTH
REF_FRAME      = TEME
TIME_SYSTEM    = UTC
MEAN_ELEMENT_THEORY = SGP/SGP4

EPOCH          = 2026-01-22T22:00:01.999584
MEAN_MOTION    = 15.97679718
ECCENTRICITY   = .00013519
INCLINATION    = 43.0021
RA_OF_ASC_NODE = 112.0827
ARG_OF_PERICENTER = 280.7585
MEAN_ANOMALY   = 190.0551

EPHEMERIS_TYPE = 0
CLASSIFICATION_TYPE = U
NORAD_CAT_ID   = 67458
ELEMENT_SET_NO = 999
REV_AT_EPOCH   = 245
BSTAR          = -.25682785E-2
MEAN_MOTION_DOT = -.1198744E-1
MEAN_MOTION_DDOT = .44550315E-3

CCSDS_OMM_VERS = 2.0
CREATION_DATE  = 
ORIGINATOR     = 

OBJECT_NAME    = STARLINK-36546
OBJECT_ID      = 2026-008Q
CENTER_NAME    = EARTH
REF_FRAME      = TEME
TIME_SYSTEM    = UTC
MEAN_ELEMENT_THEORY = SGP/SGP4

EPOCH          = 2026-01-22T22:00:01.999584
MEAN_MOTION    = 15.97810546
ECCENTRICITY   = .00014187
INCLINATION    = 43.0021
RA_OF_ASC_NODE = 112.0760
ARG_OF_PERICENTER = 282.8553
MEAN_ANOMALY   = 190.5815

EPHEMERIS_TYPE = 0
CLASSIFICATION_TYPE = U
NORAD_CAT_ID   = 67459
ELEMENT_SET_NO = 999
REV_AT_EPOCH   = 243
BSTAR          = -.25790912E-2
MEAN_MOTION_DOT = -.1212468E-1
MEAN_MOTION_DDOT = .4554899E-3

CCSDS_OMM_VERS = 2.0
CREATION_DATE  = 
ORIGINATOR     = 

OBJECT_NAME    = STARLINK-36523
OBJECT_ID      = 2026-008R
CENTER_NAME    = EARTH
REF_FRAME      = TEME
TIME_SYSTEM    = UTC
MEAN_ELEMENT_THEORY = SGP/SGP4

EPOCH          = 2026-01-22T22:00:01.999584
MEAN_MOTION    = 15.97917456
ECCENTRICITY   = .00014183
INCLINATION    = 43.0022
RA_OF_ASC_NODE = 112.0702
ARG_OF_PERICENTER = 285.8611
MEAN_ANOMALY   = 189.8859

EPHEMERIS_TYPE = 0
CLASSIFICATION_TYPE = U
NORAD_CAT_ID   = 67460
ELEMENT_SET_NO = 999
REV_AT_EPOCH   = 245
BSTAR          = -.25683633E-2
MEAN_MOTION_DOT = -.1214634E-1
MEAN_MOTION_DDOT = .4574873E-3

CCSDS_OMM_VERS = 2.0
CREATION_DATE  = 
ORIGINATOR     = 

OBJECT_NAME    = STARLINK-36522
OBJECT_ID      = 2026-008S
CENTER_NAME    = EARTH
REF_FRAME      = TEME
TIME_SYSTEM    = UTC
MEAN_ELEMENT_THEORY = SGP/SGP4

EPOCH          = 2026-01-22T22:00:01.999584
MEAN_MOTION    = 15.98019647
ECCENTRICITY   = .00014027
INCLINATION    = 43.0023
RA_OF_ASC_NODE = 112.0650
ARG_OF_PERICENTER = 283.7544
MEAN_ANOMALY   = 194.0802

EPHEMERIS_TYPE = 0
CLASSIFICATION_TYPE = U
NORAD_CAT_ID   = 67461
ELEMENT_SET_NO = 999
REV_AT_EPOCH   = 243
BSTAR          = -.25772957E-2
MEAN_MOTION_DOT = -.1225719E-1
MEAN_MOTION_DDOT = .46564561E-3

