STARLINK-36525          
1 67450U 26008F   26022.91668981 -.01151423  41105-3 -25586-2 0  9999
2 67450  43.0019 112.1195 0001678 281.1784 175.0735 15.97013476  2434
STARLINK-36511          
1 67451U 26008G   26022.91668981 -.01156741  41501-3 -25544-2 0  9992
2 67451  43.0019 112.1132 0001553 283.7813 175.0096 15.97127822  2430
STARLINK-36524          
1 67452U 26008H   26022.91668981 -.01169258  42369-3 -25681-2 0  9995
2 67452  43.0020 112.1075 0001549 283.0961 177.8197 15.97227197  2439
STARLINK-36518          
1 67453U 26008J   26022.91668981 -.01373597  59449-3 -23894-2 0  9990
2 67453  43.0009 111.8728 0001434 281.9849 270.8123 16.01359704  2454
STARLINK-36517          
1 67454U 26008K   26022.91668981 -.01189290  43764-3 -25938-2 0  9990
2 67454  43.0019 112.1007 0001622 279.6565 183.8532 15.97357402  2452
STARLINK-36516          
1 67455U 26008L   26022.91668981 -.01197964  44455-3 -25798-2 0  9990
2 67455  43.0022 112.0881 0001405 279.9897 188.7333 15.97587758  2436
STARLINK-36493          
1 67456U 26008M   26022.91668981 -.01190640  43879-3 -25889-2 0  9995
2 67456  43.0022 112.0977 0001685 278.2572 186.5853 15.97411959  2437
STARLINK-36529          
1 67457U 26008N   26022.91668981 -.01187993  43739-3 -25710-2 0  9991
2 67457  43.0022 112.0924 0001624 279.2558 187.5922 15.97496410  2431
STARLINK-36528          
1 67458U 26008P   26022.91668981 -.01198744  44550-3 -25683-2 0  9999
2 67458  43.0021 112.0827 0001351 280.7585 190.0551 15.97679718  2450
STARLINK-36546          
1 67459U 26008Q   26022.91668981 -.01212468  45549-3 -25791-2 0  9999
2 67459  43.0021 112.0760 0001418 282.8553 190.5815 15.97810546  2431
STARLINK-36523          
1 67460U 26008R   26022.91668981 -.01214634  45749-3 -25684-2 0  9991
2 67460  43.0022 112.0702 0001418 285.8611 189.8859 15.97917456  2457
STARLINK-36522          
1 67461U 26008S   26022.91668981 -.01225719  46565-3 -25773-2 0  9994
2 67461  43.0023 112.0650 0001402 283.7544 194.0802 15.98019647  2436
